{
  "type": "FeatureCollection",
  "features": [
    {
      "type": "Feature",
      "properties": {
        "norad_id": 66949,
        "name": "STARLINK-36096",
        "group": "last-30-days",
        "lat": 51.848277611513744,
        "lon": 147.17492304235302,
        "alt_km": 283.5256134157398,
        "timestamp": "2025-12-14T20:40:30.518118+00:00",
        "meta_object_name": "STARLINK-36096",
        "meta_object_id": "2025-286AA",
        "meta_epoch": "2025-12-14T06:00:02.999808",
        "meta_mean_motion": 15.95617517,
        "meta_eccentricity": 9.244e-05,
        "meta_inclination": 53.1568,
        "meta_ra_of_asc_node": 42.9566,
        "meta_arg_of_pericenter": 77.5159,
        "meta_mean_anomaly": 110.6217,
        "meta_ephemeris_type": 0,
        "meta_classification_type": "U",
        "meta_norad_cat_id": 66949,
        "meta_element_set_no": 999,
        "meta_rev_at_epoch": 223,
        "meta_bstar": -0.0033561222,
        "meta_mean_motion_dot": -0.01377823,
        "meta_mean_motion_ddot": 0.00056794958,
        "tle_line1": "1 66949U 25286AA  25348.25003472 -.01377823  56795-3 -33561-2 0  9990",
        "tle_line2": "2 66949  53.1568  42.9566 0000924  77.5159 110.6217 15.95617517  2237"
      },
      "geometry": {
        "type": "Point",
        "coordinates": [
          147.17492304235302,
          51.848277611513744
        ]
      }
    },
    {
      "type": "Feature",
      "properties": {
        "norad_id": 66950,
        "name": "STARLINK-36111",
        "group": "last-30-days",
        "lat": 50.90574524075065,
        "lon": 152.47396369740986,
        "alt_km": 283.2449041641994,
        "timestamp": "2025-12-14T20:40:30.518127+00:00",
        "meta_object_name": "STARLINK-36111",
        "meta_object_id": "2025-286AB",
        "meta_epoch": "2025-12-14T06:00:02.999808",
        "meta_mean_motion": 15.95770213,
        "meta_eccentricity": 9.546e-05,
        "meta_inclination": 53.1568,
        "meta_ra_of_asc_node": 42.9502,
        "meta_arg_of_pericenter": 80.3643,
        "meta_mean_anomaly": 110.8873,
        "meta_ephemeris_type": 0,
        "meta_classification_type": "U",
        "meta_norad_cat_id": 66950,
        "meta_element_set_no": 999,
        "meta_rev_at_epoch": 223,
        "meta_bstar": -0.003354515,
        "meta_mean_motion_dot": -0.01388478,
        "meta_mean_motion_ddot": 0.00057688783,
        "tle_line1": "1 66950U 25286AB  25348.25003472 -.01388478  57689-3 -33545-2 0  9995",
        "tle_line2": "2 66950  53.1568  42.9502 0000954  80.3643 110.8873 15.95770213  2235"
      },
      "geometry": {
        "type": "Point",
        "coordinates": [
          152.47396369740986,
          50.90574524075065
        ]
      }
    },
    {
      "type": "Feature",
      "properties": {
        "norad_id": 66951,
        "name": "STARLINK-35999",
        "group": "last-30-days",
        "lat": 50.30819221742451,
        "lon": 155.20338483641507,
        "alt_km": 283.13132879659497,
        "timestamp": "2025-12-14T20:40:30.518139+00:00",
        "meta_object_name": "STARLINK-35999",
        "meta_object_id": "2025-286AC",
        "meta_epoch": "2025-12-14T06:00:02.999808",
        "meta_mean_motion": 15.95850281,
        "meta_eccentricity": 9.342e-05,
        "meta_inclination": 53.1568,
        "meta_ra_of_asc_node": 42.9466,
        "meta_arg_of_pericenter": 83.2755,
        "meta_mean_anomaly": 109.6382,
        "meta_ephemeris_type": 0,
        "meta_classification_type": "U",
        "meta_norad_cat_id": 66951,
        "meta_element_set_no": 999,
        "meta_rev_at_epoch": 223,
        "meta_bstar": -0.0033524726,
        "meta_mean_motion_dot": -0.01393608,
        "meta_mean_motion_ddot": 0.00058125971,
        "tle_line1": "1 66951U 25286AC  25348.25003472 -.01393608  58126-3 -33525-2 0  9992",
        "tle_line2": "2 66951  53.1568  42.9466 0000934  83.2755 109.6382 15.95850281  2234"
      },
      "geometry": {
        "type": "Point",
        "coordinates": [
          155.20338483641507,
          50.30819221742451
        ]
      }
    },
    {
      "type": "Feature",
      "properties": {
        "norad_id": 66952,
        "name": "STARLINK-36122",
        "group": "last-30-days",
        "lat": 51.39671898302235,
        "lon": 149.9099257781702,
        "alt_km": 283.3651509507745,
        "timestamp": "2025-12-14T20:40:30.518151+00:00",
        "meta_object_name": "STARLINK-36122",
        "meta_object_id": "2025-286AD",
        "meta_epoch": "2025-12-14T06:00:02.999808",
        "meta_mean_motion": 15.95696977,
        "meta_eccentricity": 9.453e-05,
        "meta_inclination": 53.1569,
        "meta_ra_of_asc_node": 42.9534,
        "meta_arg_of_pericenter": 80.2363,
        "meta_mean_anomaly": 109.4887,
        "meta_ephemeris_type": 0,
        "meta_classification_type": "U",
        "meta_norad_cat_id": 66952,
        "meta_element_set_no": 999,
        "meta_rev_at_epoch": 223,
        "meta_bstar": -0.003353588,
        "meta_mean_motion_dot": -0.01382664,
        "meta_mean_motion_ddot": 0.0005720593,
        "tle_line1": "1 66952U 25286AD  25348.25003472 -.01382664  57206-3 -33536-2 0  9993",
        "tle_line2": "2 66952  53.1569  42.9534 0000945  80.2363 109.4887 15.95696977  2234"
      },
      "geometry": {
        "type": "Point",
        "coordinates": [
          149.9099257781702,
          51.39671898302235
        ]
      }
    },
    {
      "type": "Feature",
      "properties": {
        "norad_id": 66953,
        "name": "HULIANWANG DIGUI-114",
        "group": "last-30-days",
        "lat": -19.628353789424125,
        "lon": 166.63440293734078,
        "alt_km": 1003.1067120153975,
        "timestamp": "2025-12-14T20:40:30.518181+00:00",
        "meta_object_name": "HULIANWANG DIGUI-114",
        "meta_object_id": "2025-287A",
        "meta_epoch": "2025-12-11T05:43:48.442368",
        "meta_mean_motion": 13.68688345,
        "meta_eccentricity": 0.00085506,
        "meta_inclination": 86.4966,
        "meta_ra_of_asc_node": 346.7027,
        "meta_arg_of_pericenter": 209.4482,
        "meta_mean_anomaly": 150.6197,
        "meta_ephemeris_type": 0,
        "meta_classification_type": "U",
        "meta_norad_cat_id": 66953,
        "meta_element_set_no": 999,
        "meta_rev_at_epoch": 32,
        "meta_bstar": 1.3583638e-05,
        "meta_mean_motion_dot": 2.8e-07,
        "meta_mean_motion_ddot": 0,
        "tle_line1": "1 66953U 25287A   25345.23875512  .00000028  00000+0  13584-4 0  9999",
        "tle_line2": "2 66953  86.4966 346.7027 0008550 209.4482 150.6197 13.68688345   322"
      },
      "geometry": {
        "type": "Point",
        "coordinates": [
          166.63440293734078,
          -19.628353789424125
        ]
      }
    },
    {
      "type": "Feature",
      "properties": {
        "norad_id": 66954,
        "name": "HULIANWANG DIGUI-115",
        "group": "last-30-days",
        "lat": -21.775640353508493,
        "lon": 166.78736223264312,
        "alt_km": 1002.8544913990081,
        "timestamp": "2025-12-14T20:40:30.518194+00:00",
        "meta_object_name": "HULIANWANG DIGUI-115",
        "meta_object_id": "2025-287B",
        "meta_epoch": "2025-12-14T05:39:26.202816",
        "meta_mean_motion": 13.68791762,
        "meta_eccentricity": 0.00086673,
        "meta_inclination": 86.4973,
        "meta_ra_of_asc_node": 345.6134,
        "meta_arg_of_pericenter": 199.3224,
        "meta_mean_anomaly": 160.7608,
        "meta_ephemeris_type": 0,
        "meta_classification_type": "U",
        "meta_norad_cat_id": 66954,
        "meta_element_set_no": 999,
        "meta_rev_at_epoch": 73,
        "meta_bstar": 2.6663231e-05,
        "meta_mean_motion_dot": 3.9e-07,
        "meta_mean_motion_ddot": 0,
        "tle_line1": "1 66954U 25287B   25348.23571994  .00000039  00000+0  26663-4 0  9994",
        "tle_line2": "2 66954  86.4973 345.6134 0008667 199.3224 160.7608 13.68791762   730"
      },
      "geometry": {
        "type": "Point",
        "coordinates": [
          166.78736223264312,
          -21.775640353508493
        ]
      }
    },
    {
      "type": "Feature",
      "properties": {
        "norad_id": 66955,
        "name": "HULIANWANG DIGUI-116",
        "group": "last-30-days",
        "lat": -24.169693661757382,
        "lon": 166.9536006029402,
        "alt_km": 1003.2080725221731,
        "timestamp": "2025-12-14T20:40:30.518208+00:00",
        "meta_object_name": "HULIANWANG DIGUI-116",
        "meta_object_id": "2025-287C",
        "meta_epoch": "2025-12-14T02:08:18.133728",
        "meta_mean_motion": 13.68903211,
        "meta_eccentricity": 0.00080818,
        "meta_inclination": 86.4907,
        "meta_ra_of_asc_node": 345.6576,
        "meta_arg_of_pericenter": 193.9217,
        "meta_mean_anomaly": 166.172,
        "meta_ephemeris_type": 0,
        "meta_classification_type": "U",
        "meta_norad_cat_id": 66955,
        "meta_element_set_no": 999,
        "meta_rev_at_epoch": 71,
        "meta_bstar": 2.5654516e-05,
        "meta_mean_motion_dot": 3.9e-07,
        "meta_mean_motion_ddot": 0,
        "tle_line1": "1 66955U 25287C   25348.08909877  .00000039  00000+0  25655-4 0  9993",
        "tle_line2": "2 66955  86.4907 345.6576 0008081 193.9217 166.1720 13.68903211   717"
      },
      "geometry": {
        "type": "Point",
        "coordinates": [
          166.9536006029402,
          -24.169693661757382
        ]
      }
    }
  ]
}